start=new Date('2022-08-10T00:00:00.000Z').valueOf();
sats=[{"FILE":"3533123","OBJECT_ID":"2020-025Q","COUNTRY_CODE":"US","EPHEMERIS_TYPE":"0","CLASSIFICATION_TYPE":"U","GP_ID":"209925798","CENTER_NAME":"EARTH","ECCENTRICITY":"0.00021670","RA_OF_ASC_NODE":"218.4692","APOAPSIS":"548.705","REF_FRAME":"TEME","PERIAPSIS":"545.704","BSTAR":"0.00003949700000","MEAN_ANOMALY":"304.5574","MEAN_MOTION_DDOT":"0.0000000000000","PERIOD":"95.592","OBJECT_TYPE":"PAYLOAD","DECAY_DATE":null,"OBJECT_NAME":"STARLINK-1374","MEAN_MOTION":"15.06402968","MEAN_ELEMENT_THEORY":"SGP4","ARG_OF_PERICENTER":"55.5619","SEMIMAJOR_AXIS":"6925.339","LAUNCH_DATE":"2020-04-22","ELEMENT_SET_NO":"999","TLE_LINE2":"2 45545  53.0533 218.4692 0002167  55.5619 304.5574 15.06402968127923","NORAD_CAT_ID":"45545","TLE_LINE1":"1 45545U 20025Q   22221.68672195  .00000307  00000-0  39497-4 0  9991","EPOCH":"2022-08-09T16:28:52.776480","REV_AT_EPOCH":"12792","INCLINATION":"53.0533","RCS_SIZE":"LARGE","SITE":"AFETR","TIME_SYSTEM":"UTC","MEAN_MOTION_DOT":"0.00000307"},{"REF_FRAME":"TEME","APOAPSIS":"548.240","PERIAPSIS":"546.168","MEAN_ANOMALY":"285.2276","BSTAR":"0.00004021300000","MEAN_MOTION_DDOT":"0.0000000000000","PERIOD":"95.592","OBJECT_TYPE":"PAYLOAD","DECAY_DATE":null,"FILE":"3533123","COUNTRY_CODE":"US","OBJECT_ID":"2020-025R","EPHEMERIS_TYPE":"0","CLASSIFICATION_TYPE":"U","GP_ID":"209926048","ECCENTRICITY":"0.00014960","CENTER_NAME":"EARTH","RA_OF_ASC_NODE":"218.4328","INCLINATION":"53.0550","REV_AT_EPOCH":"12794","RCS_SIZE":"LARGE","SITE":"AFETR","TIME_SYSTEM":"UTC","MEAN_MOTION_DOT":"0.00000318","MEAN_MOTION":"15.06403159","MEAN_ELEMENT_THEORY":"SGP4","OBJECT_NAME":"STARLINK-1375","ARG_OF_PERICENTER":"74.8879","SEMIMAJOR_AXIS":"6925.339","TLE_LINE2":"2 45546  53.0550 218.4328 0001496  74.8879 285.2276 15.06403159127944","LAUNCH_DATE":"2020-04-22","ELEMENT_SET_NO":"999","EPOCH":"2022-08-09T16:44:48.542784","NORAD_CAT_ID":"45546","TLE_LINE1":"1 45546U 20025R   22221.69778406  .00000318  00000-0  40213-4 0  9995"},{"RCS_SIZE":"LARGE","SITE":"AFETR","INCLINATION":"53.0542","REV_AT_EPOCH":"12795","TIME_SYSTEM":"UTC","MEAN_MOTION_DOT":"0.00003298","SEMIMAJOR_AXIS":"6925.321","MEAN_MOTION":"15.06408911","MEAN_ELEMENT_THEORY":"SGP4","OBJECT_NAME":"STARLINK-1377","ARG_OF_PERICENTER":"67.4377","EPOCH":"2022-08-09T16:39:31.622400","NORAD_CAT_ID":"45547","TLE_LINE1":"1 45547U 20025S   22221.69411600  .00003298  00000-0  24014-3 0  9996","TLE_LINE2":"2 45547  53.0542 218.4500 0001399  67.4377 292.6760 15.06408911127953","ELEMENT_SET_NO":"999","LAUNCH_DATE":"2020-04-22","MEAN_ANOMALY":"292.6760","BSTAR":"0.00024014000000","MEAN_MOTION_DDOT":"0.0000000000000","REF_FRAME":"TEME","APOAPSIS":"548.155","PERIAPSIS":"546.217","OBJECT_TYPE":"PAYLOAD","DECAY_DATE":null,"PERIOD":"95.592","OBJECT_ID":"2020-025S","COUNTRY_CODE":"US","EPHEMERIS_TYPE":"0","CLASSIFICATION_TYPE":"U","GP_ID":"209926800","FILE":"3533123","RA_OF_ASC_NODE":"218.4500","ECCENTRICITY":"0.00013990","CENTER_NAME":"EARTH"},{"ARG_OF_PERICENTER":"70.5209","MEAN_MOTION":"15.06403283","MEAN_ELEMENT_THEORY":"SGP4","OBJECT_NAME":"STARLINK-1378","SEMIMAJOR_AXIS":"6925.338","TLE_LINE2":"2 45548  53.0511 218.0364 0001457  70.5209 289.5937 15.06403283127956","LAUNCH_DATE":"2020-04-22","ELEMENT_SET_NO":"999","EPOCH":"2022-08-09T18:52:11.264736","NORAD_CAT_ID":"45548","TLE_LINE1":"1 45548U 20025T   22221.78624149  .00000209  00000-0  32899-4 0  9991","INCLINATION":"53.0511","REV_AT_EPOCH":"12795","SITE":"AFETR","RCS_SIZE":"LARGE","MEAN_MOTION_DOT":"0.00000209","TIME_SYSTEM":"UTC","FILE":"3533123","CLASSIFICATION_TYPE":"U","GP_ID":"209927044","EPHEMERIS_TYPE":"0","COUNTRY_CODE":"US","OBJECT_ID":"2020-025T","ECCENTRICITY":"0.00014570","CENTER_NAME":"EARTH","RA_OF_ASC_NODE":"218.0364","PERIAPSIS":"546.194","REF_FRAME":"TEME","APOAPSIS":"548.213","MEAN_MOTION_DDOT":"0.0000000000000","MEAN_ANOMALY":"289.5937","BSTAR":"0.00003289900000","PERIOD":"95.592","DECAY_DATE":null,"OBJECT_TYPE":"PAYLOAD"},{"PERIOD":"95.592","DECAY_DATE":null,"OBJECT_TYPE":"PAYLOAD","PERIAPSIS":"546.150","APOAPSIS":"548.290","REF_FRAME":"TEME","MEAN_MOTION_DDOT":"0.0000000000000","BSTAR":"0.00001533700000","MEAN_ANOMALY":"279.0494","CENTER_NAME":"EARTH","ECCENTRICITY":"0.00015450","RA_OF_ASC_NODE":"219.7278","FILE":"3532882","CLASSIFICATION_TYPE":"U","GP_ID":"209896080","OBJECT_ID":"2020-025V","COUNTRY_CODE":"US","EPHEMERIS_TYPE":"0","MEAN_MOTION_DOT":"-0.00000053","TIME_SYSTEM":"UTC","INCLINATION":"53.0528","REV_AT_EPOCH":"12789","SITE":"AFETR","RCS_SIZE":"LARGE","ELEMENT_SET_NO":"999","LAUNCH_DATE":"2020-04-22","TLE_LINE2":"2 45550  53.0528 219.7278 0001545  81.0669 279.0494 15.06398019127899","NORAD_CAT_ID":"45550","TLE_LINE1":"1 45550U 20025V   22221.40565308 -.00000053  00000-0  15337-4 0  9990","EPOCH":"2022-08-09T09:44:08.426112","ARG_OF_PERICENTER":"81.0669","OBJECT_NAME":"STARLINK-1390","MEAN_MOTION":"15.06398019","MEAN_ELEMENT_THEORY":"SGP4","SEMIMAJOR_AXIS":"6925.355"},{"SEMIMAJOR_AXIS":"6925.333","OBJECT_NAME":"STARLINK-1294","MEAN_MOTION":"15.06405200","MEAN_ELEMENT_THEORY":"SGP4","ARG_OF_PERICENTER":"70.1866","NORAD_CAT_ID":"45551","TLE_LINE1":"1 45551U 20025W   22221.34208646  .00000582  00000-0  57939-4 0  9993","EPOCH":"2022-08-09T08:12:36.270144","ELEMENT_SET_NO":"999","LAUNCH_DATE":"2020-04-22","TLE_LINE2":"2 45551  53.0551 200.0180 0001652  70.1866 289.9301 15.06405200128178","RCS_SIZE":"LARGE","SITE":"AFETR","REV_AT_EPOCH":"12817","INCLINATION":"53.0551","TIME_SYSTEM":"UTC","MEAN_MOTION_DOT":"0.00000582","COUNTRY_CODE":"US","EPHEMERIS_TYPE":"0","OBJECT_ID":"2020-025W","CLASSIFICATION_TYPE":"U","GP_ID":"209896330","FILE":"3532882","RA_OF_ASC_NODE":"200.0180","CENTER_NAME":"EARTH","ECCENTRICITY":"0.00016520","BSTAR":"0.00005793900000","MEAN_ANOMALY":"289.9301","MEAN_MOTION_DDOT":"0.0000000000000","APOAPSIS":"548.342","REF_FRAME":"TEME","PERIAPSIS":"546.054","OBJECT_TYPE":"PAYLOAD","DECAY_DATE":null,"PERIOD":"95.592"},{"FILE":"3532882","EPHEMERIS_TYPE":"0","COUNTRY_CODE":"US","OBJECT_ID":"2020-025X","GP_ID":"209897079","CLASSIFICATION_TYPE":"U","CENTER_NAME":"EARTH","ECCENTRICITY":"0.00048510","RA_OF_ASC_NODE":"107.7634","APOAPSIS":"331.743","REF_FRAME":"TEME","PERIAPSIS":"325.236","BSTAR":"0.00318850000000","MEAN_ANOMALY":"85.2028","MEAN_MOTION_DDOT":"0.0000000000000","PERIOD":"91.099","OBJECT_TYPE":"PAYLOAD","DECAY_DATE":null,"OBJECT_NAME":"STARLINK-1322","MEAN_MOTION":"15.80690281","MEAN_ELEMENT_THEORY":"SGP4","ARG_OF_PERICENTER":"274.8439","SEMIMAJOR_AXIS":"6706.624","ELEMENT_SET_NO":"999","LAUNCH_DATE":"2020-04-22","TLE_LINE2":"2 45552  53.0389 107.7634 0004851 274.8439  85.2028 15.80690281129438","NORAD_CAT_ID":"45552","TLE_LINE1":"1 45552U 20025X   22220.97421478  .00674708  00000-0  31885-2 0  9999","EPOCH":"2022-08-08T23:22:52.156992","INCLINATION":"53.0389","REV_AT_EPOCH":"12943","RCS_SIZE":"LARGE","SITE":"AFETR","TIME_SYSTEM":"UTC","MEAN_MOTION_DOT":"0.00674708"},{"SITE":"AFETR","RCS_SIZE":"LARGE","REV_AT_EPOCH":"12689","INCLINATION":"53.0535","MEAN_MOTION_DOT":"0.00001333","TIME_SYSTEM":"UTC","SEMIMAJOR_AXIS":"6925.323","ARG_OF_PERICENTER":"74.8508","OBJECT_NAME":"STARLINK-1323","MEAN_MOTION":"15.06408498","MEAN_ELEMENT_THEORY":"SGP4","NORAD_CAT_ID":"45553","TLE_LINE1":"1 45553U 20025Y   22221.41949191  .00001333  00000-0  10838-3 0  9991","EPOCH":"2022-08-09T10:04:04.101024","ELEMENT_SET_NO":"999","LAUNCH_DATE":"2020-04-22","TLE_LINE2":"2 45553  53.0535 199.6583 0001810  74.8508 285.2681 15.06408498126891","MEAN_MOTION_DDOT":"0.0000000000000","BSTAR":"0.00010838000000","MEAN_ANOMALY":"285.2681","PERIAPSIS":"545.934","APOAPSIS":"548.441","REF_FRAME":"TEME","DECAY_DATE":null,"OBJECT_TYPE":"PAYLOAD","PERIOD":"95.592","CLASSIFICATION_TYPE":"U","GP_ID":"209896817","EPHEMERIS_TYPE":"0","COUNTRY_CODE":"US","OBJECT_ID":"2020-025Y","FILE":"3532882","RA_OF_ASC_NODE":"199.6583","CENTER_NAME":"EARTH","ECCENTRICITY":"0.00018100"},{"INCLINATION":"53.0537","REV_AT_EPOCH":"12817","RCS_SIZE":"LARGE","SITE":"AFETR","TIME_SYSTEM":"UTC","MEAN_MOTION_DOT":"0.00000770","OBJECT_NAME":"STARLINK-1325","MEAN_ELEMENT_THEORY":"SGP4","MEAN_MOTION":"15.06407492","ARG_OF_PERICENTER":"59.0996","SEMIMAJOR_AXIS":"6925.326","ELEMENT_SET_NO":"999","LAUNCH_DATE":"2020-04-22","TLE_LINE2":"2 45554  53.0537 199.9896 0001862  59.0996 301.0176 15.06407492128179","TLE_LINE1":"1 45554U 20025Z   22221.34482488  .00000770  00000-0  70548-4 0  9994","NORAD_CAT_ID":"45554","EPOCH":"2022-08-09T08:16:32.869632","APOAPSIS":"548.480","REF_FRAME":"TEME","PERIAPSIS":"545.901","BSTAR":"0.00007054800000","MEAN_ANOMALY":"301.0176","MEAN_MOTION_DDOT":"0.0000000000000","PERIOD":"95.592","OBJECT_TYPE":"PAYLOAD","DECAY_DATE":null,"FILE":"3532882","OBJECT_ID":"2020-025Z","COUNTRY_CODE":"US","EPHEMERIS_TYPE":"0","GP_ID":"209895581","CLASSIFICATION_TYPE":"U","CENTER_NAME":"EARTH","ECCENTRICITY":"0.00018620","RA_OF_ASC_NODE":"199.9896"},{"COUNTRY_CODE":"US","EPHEMERIS_TYPE":"0","OBJECT_ID":"2020-025AA","CLASSIFICATION_TYPE":"U","GP_ID":"209895831","FILE":"3532882","RA_OF_ASC_NODE":"199.8670","ECCENTRICITY":"0.00015470","CENTER_NAME":"EARTH","MEAN_ANOMALY":"283.3658","BSTAR":"0.00005926900000","MEAN_MOTION_DDOT":"0.0000000000000","REF_FRAME":"TEME","APOAPSIS":"548.258","PERIAPSIS":"546.115","OBJECT_TYPE":"PAYLOAD","DECAY_DATE":null,"PERIOD":"95.592","SEMIMAJOR_AXIS":"6925.322","MEAN_MOTION":"15.06408782","MEAN_ELEMENT_THEORY":"SGP4","OBJECT_NAME":"STARLINK-1327","ARG_OF_PERICENTER":"76.7503","EPOCH":"2022-08-09T09:00:21.956832","TLE_LINE1":"1 45555U 20025AA  22221.37525413  .00000602  00000-0  59269-4 0  9995","NORAD_CAT_ID":"45555","TLE_LINE2":"2 45555  53.0548 199.8670 0001547  76.7503 283.3658 15.06408782128171","ELEMENT_SET_NO":"999","LAUNCH_DATE":"2020-04-22","RCS_SIZE":"LARGE","SITE":"AFETR","INCLINATION":"53.0548","REV_AT_EPOCH":"12817","TIME_SYSTEM":"UTC","MEAN_MOTION_DOT":"0.00000602"}];
